$$SOE
2460721.500000000, A.D. 2025-Feb-15 00:00:00.0000, -2.668178317073135E+08, -3.437276954435456E+08, 7.754488468591869E+06,
2460728.500000000, A.D. 2025-Feb-22 00:00:00.0000, -2.599398434314339E+08, -3.508940810351048E+08, 8.364324324135020E+06,
2460735.500000000, A.D. 2025-Mar-01 00:00:00.0000, -2.529103947129136E+08, -3.578560941476321E+08, 8.969287532368958E+06,
2460742.500000000, A.D. 2025-Mar-08 00:00:00.0000, -2.457351169744914E+08, -3.646118550181826E+08, 9.569079840585381E+06,
2460749.500000000, A.D. 2025-Mar-15 00:00:00.0000, -2.384195844007906E+08, -3.711596046765907E+08, 1.016341121536954E+07,
2460756.500000000, A.D. 2025-Mar-22 00:00:00.0000, -2.309693163525224E+08, -3.774976992955045E+08, 1.075199981553753E+07,
2460763.500000000, A.D. 2025-Mar-29 00:00:00.0000, -2.233897785716076E+08, -3.836246070346026E+08, 1.133457166231211E+07,
2460770.500000000, A.D. 2025-Apr-05 00:00:00.0000, -2.156863828380510E+08, -3.895389042360422E+08, 1.191086023350219E+07,
2460777.500000000, A.D. 2025-Apr-12 00:00:00.0000, -2.078644869916952E+08, -3.952392708607467E+08, 1.248060616694404E+07,
2460784.500000000, A.D. 2025-Apr-19 00:00:00.0000, -1.999293954938751E+08, -4.007244860392978E+08, 1.304355701834694E+07,
2460791.500000000, A.D. 2025-Apr-26 00:00:00.0000, -1.918863602457302E+08, -4.059934239321775E+08, 1.359946703190467E+07,
2460798.500000000, A.D. 2025-May-03 00:00:00.0000, -1.837405815383063E+08, -4.110450498715857E+08, 1.414809691457653E+07,
2460805.500000000, A.D. 2025-May-10 00:00:00.0000, -1.754972090949564E+08, -4.158784167677575E+08, 1.468921361183676E+07,
2460812.500000000, A.D. 2025-May-17 00:00:00.0000, -1.671613431587462E+08, -4.204926618131920E+08, 1.522259007786149E+07,
2460819.500000000, A.D. 2025-May-24 00:00:00.0000, -1.587380354411667E+08, -4.248870035329955E+08, 1.574800501947260E+07,
2460826.500000000, A.D. 2025-May-31 00:00:00.0000, -1.502322895061311E+08, -4.290607388653455E+08, 1.626524260078010E+07,
2460833.500000000, A.D. 2025-Jun-07 00:00:00.0000, -1.416490609835968E+08, -4.330132390622844E+08, 1.677409224373057E+07,
2460840.500000000, A.D. 2025-Jun-14 00:00:00.0000, -1.329932599713605E+08, -4.367439450716538E+08, 1.727434868691337E+07,
2460847.500000000, A.D. 2025-Jun-21 00:00:00.0000, -1.242697544019824E+08, -4.402523656656008E+08, 1.776581192357427E+07,
2460854.500000000, A.D. 2025-Jun-28 00:00:00.0000, -1.154833712411058E+08, -4.435380765465943E+08, 1.824828687617651E+07,
2460861.500000000, A.D. 2025-Jul-05 00:00:00.0000, -1.066388970294802E+08, -4.466007182702284E+08, 1.872158312302557E+07,
2460868.500000000, A.D. 2025-Jul-12 00:00:00.0000, -9.774107895571727E+07, -4.494399937852120E+08, 1.918551472049761E+07,
2460875.500000000, A.D. 2025-Jul-19 00:00:00.0000, -8.879462626650704E+07, -4.520556661604445E+08, 1.963990005650884E+07,
2460882.500000000, A.D. 2025-Jul-26 00:00:00.0000, -7.980421180081581E+07, -4.544475565505593E+08, 2.008456171128759E+07,
2460889.500000000, A.D. 2025-Aug-02 00:00:00.0000, -7.077447357914354E+07, -4.566155423734073E+08, 2.051932632112455E+07,
2460896.500000000, A.D. 2025-Aug-09 00:00:00.0000, -6.171001642108797E+07, -4.585595557098696E+08, 2.094402444174278E+07,
2460903.500000000, A.D. 2025-Aug-16 00:00:00.0000, -5.261541351146124E+07, -4.602795819855151E+08, 2.135849039917892E+07,
2460910.500000000, A.D. 2025-Aug-23 00:00:00.0000, -4.349520762004893E+07, -4.617756589140896E+08, 2.176256210288861E+07,
2460917.500000000, A.D. 2025-Aug-30 00:00:00.0000, -3.435391164413392E+07, -4.630478749852830E+08, 2.215608084947342E+07,
2460924.500000000, A.D. 2025-Sep-06 00:00:00.0000, -2.519600989018373E+07, -4.640963664926711E+08, 2.253889132901135E+07,
2460931.500000000, A.D. 2025-Sep-13 00:00:00.0000, -1.602596176339428E+07, -4.649213155803913E+08, 2.291084178433213E+07,
2460938.500000000, A.D. 2025-Sep-20 00:00:00.0000, -6.848204589279215E+06, -4.655229509496637E+08, 2.327178388863832E+07,
2460945.500000000, A.D. 2025-Sep-27 00:00:00.0000, 2.332845493254066E+06, -4.659015481119183E+08, 2.362157249888173E+07,
2460952.500000000, A.D. 2025-Oct-04 00:00:00.0000, 1.151279255188758E+07, -4.660574286475903E+08, 2.396006551417610E+07,
2460959.500000000, A.D. 2025-Oct-11 00:00:00.0000, 2.068725942135138E+07, -4.659909594113986E+08, 2.428712379656154E+07,
2460966.500000000, A.D. 2025-Oct-18 00:00:00.0000, 2.985188608906609E+07, -4.657025519562135E+08, 2.460261110566878E+07,
2460973.500000000, A.D. 2025-Oct-25 00:00:00.0000, 3.900232804655384E+07, -4.651926621621304E+08, 2.490639403524643E+07,
2460980.500000000, A.D. 2025-Nov-01 00:00:00.0000, 4.813425464732439E+07, -4.644617900529640E+08, 2.519834194894958E+07,
2460987.500000000, A.D. 2025-Nov-08 00:00:00.0000, 5.724334750731962E+07, -4.635104798298097E+08, 2.547832690940076E+07,
2460994.500000000, A.D. 2025-Nov-15 00:00:00.0000, 6.632529909725535E+07, -4.623393201792591E+08, 2.574622358201960E+07,
2461001.500000000, A.D. 2025-Nov-22 00:00:00.0000, 7.537581193067135E+07, -4.609489446357973E+08, 2.600190909461272E+07,
2461008.500000000, A.D. 2025-Nov-29 00:00:00.0000, 8.439059819519292E+07, -4.593400308631356E+08, 2.624526295948583E+07,
2461015.500000000, A.D. 2025-Dec-06 00:00:00.0000, 9.336537755003171E+07, -4.575132989896706E+08, 2.647616725570172E+07,
2461022.500000000, A.D. 2025-Dec-13 00:00:00.0000, 1.022958735243092E+08, -4.554695123669753E+08, 2.669450675599745E+07,
2461029.500000000, A.D. 2025-Dec-20 00:00:00.0000, 1.111778120109513E+08, -4.532094797278886E+08, 2.690016876148704E+07,
2461036.500000000, A.D. 2025-Dec-27 00:00:00.0000, 1.200069207833325E+08, -4.507340561537456E+08, 2.709304295458835E+07,
2461043.500000000, A.D. 2026-Jan-03 00:00:00.0000, 1.287789285755763E+08, -4.480441434663839E+08, 2.727302135386223E+07,
2461050.500000000, A.D. 2026-Jan-10 00:00:00.0000, 1.374895638363070E+08, -4.451406907226465E+08, 2.743999830520669E+07,
2461057.500000000, A.D. 2026-Jan-17 00:00:00.0000, 1.461345533890702E+08, -4.420246949009604E+08, 2.759387048043901E+07,
2461064.500000000, A.D. 2026-Jan-24 00:00:00.0000, 1.547096210791186E+08, -4.386972017553601E+08, 2.773453687778628E+07,
2461071.500000000, A.D. 2026-Jan-31 00:00:00.0000, 1.632104864329094E+08, -4.351593068433829E+08, 2.786189882146242E+07,
2461078.500000000, A.D. 2026-Feb-07 00:00:00.0000, 1.716328633953263E+08, -4.314121567858858E+08, 2.797585995024115E+07,
2461085.500000000, A.D. 2026-Feb-14 00:00:00.0000, 1.799724594009170E+08, -4.274569507764394E+08, 2.807632617112555E+07,
2461092.500000000, A.D. 2026-Feb-21 00:00:00.0000, 1.882249751690152E+08, -4.232949417664906E+08, 2.816320559046091E+07,
2461099.500000000, A.D. 2026-Feb-28 00:00:00.0000, 1.963861041391799E+08, -4.189274361757410E+08, 2.823640861686480E+07,
2461106.500000000, A.D. 2026-Mar-07 00:00:00.0000, 2.044515294891745E+08, -4.143557940791242E+08, 2.829584826564898E+07,
2461113.500000000, A.D. 2026-Mar-14 00:00:00.0000, 2.124169215129458E+08, -4.095814322033801E+08, 2.834144021947680E+07,
2461120.500000000, A.D. 2026-Mar-21 00:00:00.0000, 2.202779371447166E+08, -4.046058268366531E+08, 2.837310271876131E+07,
2461127.500000000, A.D. 2026-Mar-28 00:00:00.0000, 2.280302196232601E+08, -3.994305156250919E+08, 2.839075655059846E+07,
2461134.500000000, A.D. 2026-Apr-04 00:00:00.0000, 2.356693976959844E+08, -3.940570992247546E+08, 2.839432511313510E+07,
2461141.500000000, A.D. 2026-Apr-11 00:00:00.0000, 2.431910846403463E+08, -3.884872431713945E+08, 2.838373450128739E+07,
2461148.500000000, A.D. 2026-Apr-18 00:00:00.0000, 2.505908772658567E+08, -3.827226799776013E+08, 2.835891359913370E+07,
2461155.500000000, A.D. 2026-Apr-25 00:00:00.0000, 2.578643549467625E+08, -3.767652114454356E+08, 2.831979417644726E+07,
2461162.500000000, A.D. 2026-May-02 00:00:00.0000, 2.650070787206902E+08, -3.706167112267759E+08, 2.826631098450774E+07,
2461169.500000000, A.D. 2026-May-09 00:00:00.0000, 2.720145905832344E+08, -3.642791276999460E+08, 2.819840183468696E+07,
2461176.500000000, A.D. 2026-May-16 00:00:00.0000, 2.788824133630099E+08, -3.577544870271109E+08, 2.811600763693981E+07,
2461183.500000000, A.D. 2026-May-23 00:00:00.0000, 2.856060512362540E+08, -3.510448953741522E+08, 2.801907247771917E+07,
2461190.500000000, A.D. 2026-May-30 00:00:00.0000, 2.921809888092242E+08, -3.441525399781218E+08, 2.790754395470820E+07,
2461197.500000000, A.D. 2026-Jun-06 00:00:00.0000, 2.986026884570161E+08, -3.370796923390146E+08, 2.778137353012767E+07,
2461204.500000000, A.D. 2026-Jun-13 00:00:00.0000, 3.048665895918540E+08, -3.298287133388675E+08, 2.764051658265212E+07,
2461211.500000000, A.D. 2026-Jun-20 00:00:00.0000, 3.109681093688214E+08, -3.224020573651097E+08, 2.748493244330738E+07,
2461218.500000000, A.D. 2026-Jun-27 00:00:00.0000, 3.169026431402096E+08, -3.148022757819092E+08, 2.731458454374500E+07,
2461225.500000000, A.D. 2026-Jul-04 00:00:00.0000, 3.226655646682143E+08, -3.070320205280728E+08, 2.712944061390679E+07,
2461232.500000000, A.D. 2026-Jul-11 00:00:00.0000, 3.282522263604302E+08, -2.990940479768389E+08, 2.692947289533669E+07,
2461239.500000000, A.D. 2026-Jul-18 00:00:00.0000, 3.336579596321402E+08, -2.909912230352136E+08, 2.671465836410478E+07,
2461246.500000000, A.D. 2026-Jul-25 00:00:00.0000, 3.388780754316624E+08, -2.827265234834268E+08, 2.648497896170682E+07,
2461253.500000000, A.D. 2026-Aug-01 00:00:00.0000, 3.439078649889731E+08, -2.743030446054004E+08, 2.624042182589433E+07,
2461260.500000000, A.D. 2026-Aug-08 00:00:00.0000, 3.487426010152956E+08, -2.657240041477239E+08, 2.598097949902742E+07,
2461267.500000000, A.D. 2026-Aug-15 00:00:00.0000, 3.533775397834609E+08, -2.569927471576279E+08, 2.570665011316665E+07,
2461274.500000000, A.D. 2026-Aug-22 00:00:00.0000, 3.578079233449833E+08, -2.481127494804384E+08, 2.541743772245969E+07,
2461281.500000000, A.D. 2026-Aug-29 00:00:00.0000, 3.620289796117253E+08, -2.390876212916141E+08, 2.511335288149137E+07,
2461288.500000000, A.D. 2026-Sep-05 00:00:00.0000, 3.660359224516879E+08, -2.299211135315088E+08, 2.479441303987865E+07,
$$EOE